[{"OBJECT_NAME":"STARLINK-3680","OBJECT_ID":"2022-025P","EPOCH":"2026-03-09T06:42:53.220960","MEAN_MOTION":15.30084933,"ECCENTRICITY":0.00015454,"INCLINATION":53.1604,"RA_OF_ASC_NODE":26.2267,"ARG_OF_PERICENTER":107.1319,"MEAN_ANOMALY":252.9851,"EPHEMERIS_TYPE":0,"CLASSIFICATION_TYPE":"U","NORAD_CAT_ID":51969,"ELEMENT_SET_NO":999,"REV_AT_EPOCH":22094,"BSTAR":0.001642036,"MEAN_MOTION_DOT":0.00048417,"MEAN_MOTION_DDOT":0},{"OBJECT_NAME":"OBJECT BE","OBJECT_ID":"2024-199BE","EPOCH":"2026-03-09T22:35:11.240448","MEAN_MOTION":15.34583634,"ECCENTRICITY":0.00126202,"INCLINATION":97.3163,"RA_OF_ASC_NODE":298.7137,"ARG_OF_PERICENTER":307.7021,"MEAN_ANOMALY":52.3078,"EPHEMERIS_TYPE":0,"CLASSIFICATION_TYPE":"U","NORAD_CAT_ID":61787,"ELEMENT_SET_NO":999,"REV_AT_EPOCH":12186,"BSTAR":0.00035348262,"MEAN_MOTION_DOT":0.00011799,"MEAN_MOTION_DDOT":0}]
